CCSDS_OMM_VERS = 2.0
CREATION_DATE  = 
ORIGINATOR     = 

OBJECT_NAME    = H-2A R/B
OBJECT_ID      = 2006-002B
CENTER_NAME    = EARTH
REF_FRAME      = TEME
TIME_SYSTEM    = UTC
MEAN_ELEMENT_THEORY = SGP/SGP4

EPOCH          = 2026-03-30T09:24:09.764352
MEAN_MOTION    = 15.16885803
ECCENTRICITY   = .0052456
INCLINATION    = 98.2444
RA_OF_ASC_NODE = 238.2081
ARG_OF_PERICENTER = 170.2321
MEAN_ANOMALY   = 189.9943

EPHEMERIS_TYPE = 0
CLASSIFICATION_TYPE = U
NORAD_CAT_ID   = 28932
ELEMENT_SET_NO = 999
REV_AT_EPOCH   = 9757
BSTAR          = .68904E-3
MEAN_MOTION_DOT = .13995E-3
MEAN_MOTION_DDOT = 0

CCSDS_OMM_VERS = 2.0
CREATION_DATE  = 
ORIGINATOR     = 

OBJECT_NAME    = RESURS-DK 1
OBJECT_ID      = 2006-021A
CENTER_NAME    = EARTH
REF_FRAME      = TEME
TIME_SYSTEM    = UTC
MEAN_ELEMENT_THEORY = SGP/SGP4

EPOCH          = 2026-03-30T13:29:09.712608
MEAN_MOTION    = 15.12874434
ECCENTRICITY   = .00013938
INCLINATION    = 69.9339
RA_OF_ASC_NODE = 183.0312
ARG_OF_PERICENTER = 48.1234
MEAN_ANOMALY   = 312.0050

EPHEMERIS_TYPE = 0
CLASSIFICATION_TYPE = U
NORAD_CAT_ID   = 29228
ELEMENT_SET_NO = 999
REV_AT_EPOCH   = 9068
BSTAR          = .17698687E-3
MEAN_MOTION_DOT = .3014E-4
MEAN_MOTION_DDOT = 0

CCSDS_OMM_VERS = 2.0
CREATION_DATE  = 
ORIGINATOR     = 

OBJECT_NAME    = CZ-4B R/B
OBJECT_ID      = 2006-046C
CENTER_NAME    = EARTH
REF_FRAME      = TEME
TIME_SYSTEM    = UTC
MEAN_ELEMENT_THEORY = SGP/SGP4

EPOCH          = 2026-03-30T09:17:18.785472
MEAN_MOTION    = 15.17114726
ECCENTRICITY   = .00328537
INCLINATION    = 97.5555
RA_OF_ASC_NODE = 134.2388
ARG_OF_PERICENTER = 193.0829
MEAN_ANOMALY   = 166.9555

EPHEMERIS_TYPE = 0
CLASSIFICATION_TYPE = U
NORAD_CAT_ID   = 29507
ELEMENT_SET_NO = 999
REV_AT_EPOCH   = 6318
BSTAR          = .32723415E-3
MEAN_MOTION_DOT = .6508E-4
MEAN_MOTION_DDOT = 0

CCSDS_OMM_VERS = 2.0
CREATION_DATE  = 
ORIGINATOR     = 

OBJECT_NAME    = CZ-2C R/B
OBJECT_ID      = 2007-010B
CENTER_NAME    = EARTH
REF_FRAME      = TEME
TIME_SYSTEM    = UTC
MEAN_ELEMENT_THEORY = SGP/SGP4

EPOCH          = 2026-03-30T13:53:59.990784
MEAN_MOTION    = 14.20253869
ECCENTRICITY   = .00581358
INCLINATION    = 98.4001
RA_OF_ASC_NODE = 201.8132
ARG_OF_PERICENTER = 232.7310
MEAN_ANOMALY   = 126.8558

EPHEMERIS_TYPE = 0
CLASSIFICATION_TYPE = U
NORAD_CAT_ID   = 31114
ELEMENT_SET_NO = 999
REV_AT_EPOCH   = 98268
BSTAR          = .96955543E-4
MEAN_MOTION_DOT = .169E-5
MEAN_MOTION_DDOT = 0

CCSDS_OMM_VERS = 2.0
CREATION_DATE  = 
ORIGINATOR     = 

OBJECT_NAME    = COSMO-SKYMED 1
OBJECT_ID      = 2007-023A
CENTER_NAME    = EARTH
REF_FRAME      = TEME
TIME_SYSTEM    = UTC
MEAN_ELEMENT_THEORY = SGP/SGP4

EPOCH          = 2026-03-30T14:11:27.156192
MEAN_MOTION    = 14.96687194
ECCENTRICITY   = .00010954
INCLINATION    = 97.8869
RA_OF_ASC_NODE = 280.7941
ARG_OF_PERICENTER = 103.0080
MEAN_ANOMALY   = 257.1264

EPHEMERIS_TYPE = 0
CLASSIFICATION_TYPE = U
NORAD_CAT_ID   = 31598
ELEMENT_SET_NO = 999
REV_AT_EPOCH   = 1803
BSTAR          = .42628206E-3
MEAN_MOTION_DOT = .4807E-4
MEAN_MOTION_DDOT = 0

CCSDS_OMM_VERS = 2.0
CREATION_DATE  = 
ORIGINATOR     = 

OBJECT_NAME    = COSMOS 2428
OBJECT_ID      = 2007-029A
CENTER_NAME    = EARTH
REF_FRAME      = TEME
TIME_SYSTEM    = UTC
MEAN_ELEMENT_THEORY = SGP/SGP4

EPOCH          = 2026-03-30T13:27:35.637696
MEAN_MOTION    = 14.12948512
ECCENTRICITY   = .0009713
INCLINATION    = 70.9430
RA_OF_ASC_NODE = 159.5394
ARG_OF_PERICENTER = 255.5249
MEAN_ANOMALY   = 104.4795

EPHEMERIS_TYPE = 0
CLASSIFICATION_TYPE = U
NORAD_CAT_ID   = 31792
ELEMENT_SET_NO = 999
REV_AT_EPOCH   = 96704
BSTAR          = .15815218E-4
MEAN_MOTION_DOT = -.18E-6
MEAN_MOTION_DDOT = 0

CCSDS_OMM_VERS = 2.0
CREATION_DATE  = 
ORIGINATOR     = 

OBJECT_NAME    = SL-16 R/B
OBJECT_ID      = 2007-029B
CENTER_NAME    = EARTH
REF_FRAME      = TEME
TIME_SYSTEM    = UTC
MEAN_ELEMENT_THEORY = SGP/SGP4

EPOCH          = 2026-03-30T13:57:36.489312
MEAN_MOTION    = 14.14843662
ECCENTRICITY   = .0002785
INCLINATION    = 70.9746
RA_OF_ASC_NODE = 128.4698
ARG_OF_PERICENTER = 277.8941
MEAN_ANOMALY   = 244.8407

EPHEMERIS_TYPE = 0
CLASSIFICATION_TYPE = U
NORAD_CAT_ID   = 31793
ELEMENT_SET_NO = 999
REV_AT_EPOCH   = 96832
BSTAR          = .16505451E-4
MEAN_MOTION_DOT = -.16E-6
MEAN_MOTION_DDOT = 0

CCSDS_OMM_VERS = 2.0
CREATION_DATE  = 
ORIGINATOR     = 

OBJECT_NAME    = KORONAS-FOTON
OBJECT_ID      = 2009-003A
CENTER_NAME    = EARTH
REF_FRAME      = TEME
TIME_SYSTEM    = UTC
MEAN_ELEMENT_THEORY = SGP/SGP4

EPOCH          = 2026-03-30T12:12:35.566272
MEAN_MOTION    = 15.43890614
ECCENTRICITY   = .00116711
INCLINATION    = 82.4274
RA_OF_ASC_NODE = 254.2214
ARG_OF_PERICENTER = 82.0695
MEAN_ANOMALY   = 278.1877

EPHEMERIS_TYPE = 0
CLASSIFICATION_TYPE = U
NORAD_CAT_ID   = 33504
ELEMENT_SET_NO = 999
REV_AT_EPOCH   = 94895
BSTAR          = .39658703E-3
MEAN_MOTION_DOT = .181E-3
MEAN_MOTION_DDOT = 0

CCSDS_OMM_VERS = 2.0
CREATION_DATE  = 
ORIGINATOR     = 

OBJECT_NAME    = CZ-2C R/B
OBJECT_ID      = 2011-030B
CENTER_NAME    = EARTH
REF_FRAME      = TEME
TIME_SYSTEM    = UTC
MEAN_ELEMENT_THEORY = SGP/SGP4

EPOCH          = 2026-03-30T11:55:22.274976
MEAN_MOTION    = 14.81295610
ECCENTRICITY   = .00510319
INCLINATION    = 97.8579
RA_OF_ASC_NODE = 46.3492
ARG_OF_PERICENTER = 283.1622
MEAN_ANOMALY   = 199.2649

EPHEMERIS_TYPE = 0
CLASSIFICATION_TYPE = U
NORAD_CAT_ID   = 37731
ELEMENT_SET_NO = 999
REV_AT_EPOCH   = 79317
BSTAR          = .24179587E-3
MEAN_MOTION_DOT = .1873E-4
MEAN_MOTION_DDOT = 0

CCSDS_OMM_VERS = 2.0
CREATION_DATE  = 
ORIGINATOR     = 

OBJECT_NAME    = H-2A R/B
OBJECT_ID      = 2012-025E
CENTER_NAME    = EARTH
REF_FRAME      = TEME
TIME_SYSTEM    = UTC
MEAN_ELEMENT_THEORY = SGP/SGP4

EPOCH          = 2026-03-30T11:22:00.813792
MEAN_MOTION    = 14.95316131
ECCENTRICITY   = .00428306
INCLINATION    = 98.4766
RA_OF_ASC_NODE = 58.1904
ARG_OF_PERICENTER = 244.0709
MEAN_ANOMALY   = 115.6093

EPHEMERIS_TYPE = 0
CLASSIFICATION_TYPE = U
NORAD_CAT_ID   = 38341
ELEMENT_SET_NO = 999
REV_AT_EPOCH   = 75132
BSTAR          = .36207107E-3
MEAN_MOTION_DOT = .3994E-4
MEAN_MOTION_DDOT = 0

CCSDS_OMM_VERS = 2.0
CREATION_DATE  = 
ORIGINATOR     = 

OBJECT_NAME    = SHIJIAN-16 (SJ-16)
OBJECT_ID      = 2013-057A
CENTER_NAME    = EARTH
REF_FRAME      = TEME
TIME_SYSTEM    = UTC
MEAN_ELEMENT_THEORY = SGP/SGP4

EPOCH          = 2026-03-30T14:40:41.939328
MEAN_MOTION    = 14.92426790
ECCENTRICITY   = .00152954
INCLINATION    = 74.9725
RA_OF_ASC_NODE = 145.4828
ARG_OF_PERICENTER = 58.2722
MEAN_ANOMALY   = 301.9954

EPHEMERIS_TYPE = 0
CLASSIFICATION_TYPE = U
NORAD_CAT_ID   = 39358
ELEMENT_SET_NO = 999
REV_AT_EPOCH   = 67462
BSTAR          = .13666612E-3
MEAN_MOTION_DOT = .1374E-4
MEAN_MOTION_DDOT = 0

CCSDS_OMM_VERS = 2.0
CREATION_DATE  = 
ORIGINATOR     = 

OBJECT_NAME    = SL-4 R/B
OBJECT_ID      = 2014-021B
CENTER_NAME    = EARTH
REF_FRAME      = TEME
TIME_SYSTEM    = UTC
MEAN_ELEMENT_THEORY = SGP/SGP4

EPOCH          = 2026-03-30T03:23:14.581536
MEAN_MOTION    = 15.39903339
ECCENTRICITY   = .0095266
INCLINATION    = 51.6054
RA_OF_ASC_NODE = 237.4532
ARG_OF_PERICENTER = 177.5547
MEAN_ANOMALY   = 182.5922

EPHEMERIS_TYPE = 0
CLASSIFICATION_TYPE = U
NORAD_CAT_ID   = 39679
ELEMENT_SET_NO = 999
REV_AT_EPOCH   = 65942
BSTAR          = .50981E-3
MEAN_MOTION_DOT = .23819E-3
MEAN_MOTION_DDOT = 0

